CCSDS_OMM_VERS = 2.0
CREATION_DATE  = 
ORIGINATOR     = 

OBJECT_NAME    = 2025-274C
OBJECT_ID      = 2025-274C
CENTER_NAME    = EARTH
REF_FRAME      = TEME
TIME_SYSTEM    = UTC
MEAN_ELEMENT_THEORY = SGP/SGP4

EPOCH          = 2025-12-19T06:08:19.159584
MEAN_MOTION    = 14.91935535
ECCENTRICITY   = .00105345
INCLINATION    = 97.7400
RA_OF_ASC_NODE = 280.3315
ARG_OF_PERICENTER = 233.1772
MEAN_ANOMALY   = 126.8481

EPHEMERIS_TYPE = 0
CLASSIFICATION_TYPE = U
NORAD_CAT_ID   = 66652
ELEMENT_SET_NO = 999
REV_AT_EPOCH   = 337
BSTAR          = .1755185E-3
MEAN_MOTION_DOT = .1722E-4
MEAN_MOTION_DDOT = 0

CCSDS_OMM_VERS = 2.0
CREATION_DATE  = 
ORIGINATOR     = 

OBJECT_NAME    = 2025-274D
OBJECT_ID      = 2025-274D
CENTER_NAME    = EARTH
REF_FRAME      = TEME
TIME_SYSTEM    = UTC
MEAN_ELEMENT_THEORY = SGP/SGP4

EPOCH          = 2025-12-19T06:08:11.743008
MEAN_MOTION    = 14.91935009
ECCENTRICITY   = .00115087
INCLINATION    = 97.7398
RA_OF_ASC_NODE = 280.3311
ARG_OF_PERICENTER = 229.4362
MEAN_ANOMALY   = 130.5856

EPHEMERIS_TYPE = 0
CLASSIFICATION_TYPE = U
NORAD_CAT_ID   = 66653
ELEMENT_SET_NO = 999
REV_AT_EPOCH   = 337
BSTAR          = .13153861E-3
MEAN_MOTION_DOT = .1276E-4
MEAN_MOTION_DDOT = 0

CCSDS_OMM_VERS = 2.0
CREATION_DATE  = 
ORIGINATOR     = 

OBJECT_NAME    = JACK E
OBJECT_ID      = 2025-274E
CENTER_NAME    = EARTH
REF_FRAME      = TEME
TIME_SYSTEM    = UTC
MEAN_ELEMENT_THEORY = SGP/SGP4

EPOCH          = 2025-12-18T20:25:04.095840
MEAN_MOTION    = 14.92115116
ECCENTRICITY   = .00119932
INCLINATION    = 97.7400
RA_OF_ASC_NODE = 279.9401
ARG_OF_PERICENTER = 232.7773
MEAN_ANOMALY   = 127.2352

EPHEMERIS_TYPE = 0
CLASSIFICATION_TYPE = U
NORAD_CAT_ID   = 66654
ELEMENT_SET_NO = 999
REV_AT_EPOCH   = 331
BSTAR          = .1596937E-3
MEAN_MOTION_DOT = .1569E-4
MEAN_MOTION_DDOT = 0

CCSDS_OMM_VERS = 2.0
CREATION_DATE  = 
ORIGINATOR     = 

OBJECT_NAME    = 2025-274F
OBJECT_ID      = 2025-274F
CENTER_NAME    = EARTH
REF_FRAME      = TEME
TIME_SYSTEM    = UTC
MEAN_ELEMENT_THEORY = SGP/SGP4

EPOCH          = 2025-12-18T18:53:07.339200
MEAN_MOTION    = 14.91174217
ECCENTRICITY   = .00049938
INCLINATION    = 97.7329
RA_OF_ASC_NODE = 279.8662
ARG_OF_PERICENTER = 2.8245
MEAN_ANOMALY   = 357.3001

EPHEMERIS_TYPE = 0
CLASSIFICATION_TYPE = U
NORAD_CAT_ID   = 66655
ELEMENT_SET_NO = 999
REV_AT_EPOCH   = 330
BSTAR          = -.7422034E-5
MEAN_MOTION_DOT = -.129E-5
MEAN_MOTION_DDOT = 0

CCSDS_OMM_VERS = 2.0
CREATION_DATE  = 
ORIGINATOR     = 

OBJECT_NAME    = 2025-274G
OBJECT_ID      = 2025-274G
CENTER_NAME    = EARTH
REF_FRAME      = TEME
TIME_SYSTEM    = UTC
MEAN_ELEMENT_THEORY = SGP/SGP4

EPOCH          = 2025-12-19T06:00:24.513408
MEAN_MOTION    = 14.92310585
ECCENTRICITY   = .00125722
INCLINATION    = 97.7401
RA_OF_ASC_NODE = 280.3384
ARG_OF_PERICENTER = 233.0286
MEAN_ANOMALY   = 126.9783

EPHEMERIS_TYPE = 0
CLASSIFICATION_TYPE = U
NORAD_CAT_ID   = 66656
ELEMENT_SET_NO = 999
REV_AT_EPOCH   = 337
BSTAR          = .15788764E-3
MEAN_MOTION_DOT = .1559E-4
MEAN_MOTION_DDOT = 0

CCSDS_OMM_VERS = 2.0
CREATION_DATE  = 
ORIGINATOR     = 

OBJECT_NAME    = SPIRONE
OBJECT_ID      = 2025-274H
CENTER_NAME    = EARTH
REF_FRAME      = TEME
TIME_SYSTEM    = UTC
MEAN_ELEMENT_THEORY = SGP/SGP4

EPOCH          = 2025-12-18T20:17:15.327456
MEAN_MOTION    = 14.92488768
ECCENTRICITY   = .00107229
INCLINATION    = 97.7399
RA_OF_ASC_NODE = 279.9459
ARG_OF_PERICENTER = 252.9623
MEAN_ANOMALY   = 107.0422

EPHEMERIS_TYPE = 0
CLASSIFICATION_TYPE = U
NORAD_CAT_ID   = 66657
ELEMENT_SET_NO = 999
REV_AT_EPOCH   = 331
BSTAR          = .17540552E-3
MEAN_MOTION_DOT = .1745E-4
MEAN_MOTION_DDOT = 0

CCSDS_OMM_VERS = 2.0
CREATION_DATE  = 
ORIGINATOR     = 

OBJECT_NAME    = 2025-274J
OBJECT_ID      = 2025-274J
CENTER_NAME    = EARTH
REF_FRAME      = TEME
TIME_SYSTEM    = UTC
MEAN_ELEMENT_THEORY = SGP/SGP4

EPOCH          = 2025-12-19T05:52:44.883552
MEAN_MOTION    = 14.92660153
ECCENTRICITY   = .00112662
INCLINATION    = 97.7399
RA_OF_ASC_NODE = 280.3448
ARG_OF_PERICENTER = 254.6589
MEAN_ANOMALY   = 105.3385

EPHEMERIS_TYPE = 0
CLASSIFICATION_TYPE = U
NORAD_CAT_ID   = 66658
ELEMENT_SET_NO = 999
REV_AT_EPOCH   = 337
BSTAR          = .15304223E-3
MEAN_MOTION_DOT = .1522E-4
MEAN_MOTION_DDOT = 0

CCSDS_OMM_VERS = 2.0
CREATION_DATE  = 
ORIGINATOR     = 

OBJECT_NAME    = JACK K
OBJECT_ID      = 2025-274K
CENTER_NAME    = EARTH
REF_FRAME      = TEME
TIME_SYSTEM    = UTC
MEAN_ELEMENT_THEORY = SGP/SGP4

EPOCH          = 2025-12-19T05:48:42.862464
MEAN_MOTION    = 14.92844951
ECCENTRICITY   = .00119748
INCLINATION    = 97.7402
RA_OF_ASC_NODE = 280.3491
ARG_OF_PERICENTER = 256.1140
MEAN_ANOMALY   = 103.8748

EPHEMERIS_TYPE = 0
CLASSIFICATION_TYPE = U
NORAD_CAT_ID   = 66659
ELEMENT_SET_NO = 999
REV_AT_EPOCH   = 337
BSTAR          = .15282471E-3
MEAN_MOTION_DOT = .1527E-4
MEAN_MOTION_DDOT = 0

CCSDS_OMM_VERS = 2.0
CREATION_DATE  = 
ORIGINATOR     = 

OBJECT_NAME    = K-HERO
OBJECT_ID      = 2025-274L
CENTER_NAME    = EARTH
REF_FRAME      = TEME
TIME_SYSTEM    = UTC
MEAN_ELEMENT_THEORY = SGP/SGP4

EPOCH          = 2025-12-18T18:29:52.806048
MEAN_MOTION    = 14.92995215
ECCENTRICITY   = .00125308
INCLINATION    = 97.7404
RA_OF_ASC_NODE = 279.8915
ARG_OF_PERICENTER = 258.5821
MEAN_ANOMALY   = 101.3991

EPHEMERIS_TYPE = 0
CLASSIFICATION_TYPE = U
NORAD_CAT_ID   = 66660
ELEMENT_SET_NO = 999
REV_AT_EPOCH   = 330
BSTAR          = .19949035E-3
MEAN_MOTION_DOT = .2019E-4
MEAN_MOTION_DDOT = 0

CCSDS_OMM_VERS = 2.0
CREATION_DATE  = 
ORIGINATOR     = 

OBJECT_NAME    = SNUGLITE-III
OBJECT_ID      = 2025-274M
CENTER_NAME    = EARTH
REF_FRAME      = TEME
TIME_SYSTEM    = UTC
MEAN_ELEMENT_THEORY = SGP/SGP4

EPOCH          = 2025-12-19T04:05:47.445792
MEAN_MOTION    = 14.93131354
ECCENTRICITY   = .00131617
INCLINATION    = 97.7404
RA_OF_ASC_NODE = 280.2891
ARG_OF_PERICENTER = 258.3586
MEAN_ANOMALY   = 101.6156

EPHEMERIS_TYPE = 0
CLASSIFICATION_TYPE = U
NORAD_CAT_ID   = 66661
ELEMENT_SET_NO = 999
REV_AT_EPOCH   = 336
BSTAR          = .17599835E-3
MEAN_MOTION_DOT = .1781E-4
MEAN_MOTION_DDOT = 0

CCSDS_OMM_VERS = 2.0
CREATION_DATE  = 
ORIGINATOR     = 

OBJECT_NAME    = 2025-274N
OBJECT_ID      = 2025-274N
CENTER_NAME    = EARTH
REF_FRAME      = TEME
TIME_SYSTEM    = UTC
MEAN_ELEMENT_THEORY = SGP/SGP4

EPOCH          = 2025-12-19T05:41:03.102144
MEAN_MOTION    = 14.93185888
ECCENTRICITY   = .00135967
INCLINATION    = 97.7405
RA_OF_ASC_NODE = 280.3564
ARG_OF_PERICENTER = 257.7942
MEAN_ANOMALY   = 102.1755

EPHEMERIS_TYPE = 0
CLASSIFICATION_TYPE = U
NORAD_CAT_ID   = 66662
ELEMENT_SET_NO = 999
REV_AT_EPOCH   = 337
BSTAR          = .17166232E-3
MEAN_MOTION_DOT = .1738E-4
MEAN_MOTION_DDOT = 0

CCSDS_OMM_VERS = 2.0
CREATION_DATE  = 
ORIGINATOR     = 

OBJECT_NAME    = KSLV-II R/B
OBJECT_ID      = 2025-274P
CENTER_NAME    = EARTH
REF_FRAME      = TEME
TIME_SYSTEM    = UTC
MEAN_ELEMENT_THEORY = SGP/SGP4

EPOCH          = 2025-12-19T04:09:57.323232
MEAN_MOTION    = 14.97428246
ECCENTRICITY   = .00565265
INCLINATION    = 97.7436
RA_OF_ASC_NODE = 280.4553
ARG_OF_PERICENTER = 296.8838
MEAN_ANOMALY   = 62.6613

EPHEMERIS_TYPE = 0
CLASSIFICATION_TYPE = U
NORAD_CAT_ID   = 66663
ELEMENT_SET_NO = 999
REV_AT_EPOCH   = 337
BSTAR          = .782208E-3
MEAN_MOTION_DOT = .9347E-4
MEAN_MOTION_DDOT = 0

