2025-274C               
1 66652U 25274C   25353.25577731  .00001722  00000+0  17552-3 0  9994
2 66652  97.7400 280.3315 0010534 233.1772 126.8481 14.91935535  3372
2025-274D               
1 66653U 25274D   25353.25569147  .00001276  00000+0  13154-3 0  9995
2 66653  97.7398 280.3311 0011508 229.4362 130.5856 14.91935009  3374
JACK E                  
1 66654U 25274E   25352.85074185  .00001569  00000+0  15969-3 0  9995
2 66654  97.7400 279.9401 0011993 232.7773 127.2352 14.92115116  3312
2025-274F               
1 66655U 25274F   25352.78689050 -.00000129  00000+0 -74220-5 0  9991
2 66655  97.7329 279.8662 0004993   2.8245 357.3001 14.91174217  3305
2025-274G               
1 66656U 25274G   25353.25028372  .00001559  00000+0  15789-3 0  9998
2 66656  97.7401 280.3384 0012572 233.0286 126.9783 14.92310585  3375
SPIRONE                 
1 66657U 25274H   25352.84531629  .00001745  00000+0  17541-3 0  9992
2 66657  97.7399 279.9459 0010722 252.9623 107.0422 14.92488768  3312
2025-274J               
1 66658U 25274J   25353.24496393  .00001522  00000+0  15304-3 0  9994
2 66658  97.7399 280.3448 0011266 254.6589 105.3385 14.92660153  3376
JACK K                  
1 66659U 25274K   25353.24216276  .00001527  00000+0  15282-3 0  9995
2 66659  97.7402 280.3491 0011974 256.1140 103.8748 14.92844951  3372
K-HERO                  
1 66660U 25274L   25352.77075007  .00002019  00000+0  19949-3 0  9990
2 66660  97.7404 279.8915 0012530 258.5821 101.3991 14.92995215  3307
SNUGLITE-III            
1 66661U 25274M   25353.17068803  .00001781  00000+0  17600-3 0  9999
2 66661  97.7404 280.2891 0013161 258.3586 101.6156 14.93131354  3363
2025-274N               
1 66662U 25274N   25353.23684146  .00001738  00000+0  17166-3 0  9990
2 66662  97.7405 280.3564 0013596 257.7942 102.1755 14.93185888  3377
KSLV-II R/B             
1 66663U 25274P   25353.17358013  .00009347  00000+0  78221-3 0  9998
2 66663  97.7436 280.4553 0056526 296.8838  62.6613 14.97428246  3374
